[{"OBJECT_NAME":"CATCH-1","OBJECT_ID":"2024-116A","EPOCH":"2026-03-09T23:23:31.862976","MEAN_MOTION":14.84553399,"ECCENTRICITY":0.00043121,"INCLINATION":28.9968,"RA_OF_ASC_NODE":19.2665,"ARG_OF_PERICENTER":129.2844,"MEAN_ANOMALY":230.8133,"EPHEMERIS_TYPE":0,"CLASSIFICATION_TYPE":"U","NORAD_CAT_ID":60088,"ELEMENT_SET_NO":999,"REV_AT_EPOCH":9290,"BSTAR":0.00032499126,"MEAN_MOTION_DOT":2.929e-5,"MEAN_MOTION_DDOT":0},{"OBJECT_NAME":"AETHER-8","OBJECT_ID":"2026-004S","EPOCH":"2026-03-09T23:37:25.854528","MEAN_MOTION":14.87815417,"ECCENTRICITY":0.00069617,"INCLINATION":97.8009,"RA_OF_ASC_NODE":69.1822,"ARG_OF_PERICENTER":97.7644,"MEAN_ANOMALY":262.4363,"EPHEMERIS_TYPE":0,"CLASSIFICATION_TYPE":"U","NORAD_CAT_ID":67379,"ELEMENT_SET_NO":999,"REV_AT_EPOCH":853,"BSTAR":0.00014657991,"MEAN_MOTION_DOT":1.285e-5,"MEAN_MOTION_DDOT":0}]
